OBJECT_NAME,OBJECT_ID,EPOCH,MEAN_MOTION,ECCENTRICITY,INCLINATION,RA_OF_ASC_NODE,ARG_OF_PERICENTER,MEAN_ANOMALY,EPHEMERIS_TYPE,CLASSIFICATION_TYPE,NORAD_CAT_ID,ELEMENT_SET_NO,REV_AT_EPOCH,BSTAR,MEAN_MOTION_DOT,MEAN_MOTION_DDOT
ONEWEB-0534,2023-029B,2026-06-09T17:30:49.160160,13.20771461,.00018356,87.9182,275.9565,99.2646,260.8695,0,U,55797,999,16016,.13792732E-3,.69E-6,0
ONEWEB-0556,2023-029C,2026-06-09T17:40:31.706112,13.20773386,.00018657,87.9179,275.9548,74.3355,285.7984,0,U,55798,999,16016,.95315413E-4,.52E-6,0
ONEWEB-0562,2023-029D,2026-06-09T17:21:06.847488,13.20770687,.00024868,87.9180,275.9384,82.7823,277.3593,0,U,55799,999,16016,.32503596E-4,.26E-6,0
ONEWEB-0563,2023-029E,2026-06-09T17:13:51.642912,13.20772065,.00016991,87.9178,275.9697,100.6302,259.5023,0,U,55800,999,16015,.53723617E-4,.35E-6,0
ONEWEB-0564,2023-029F,2026-06-09T17:04:09.520320,13.20771006,.00022129,87.9179,275.9444,92.0804,268.0583,0,U,55801,999,16016,-.6716942E-4,-.14E-6,0
ONEWEB-0638,2023-029G,2026-06-09T09:37:00.758208,13.14502669,.0001934,87.8948,291.3047,83.6385,276.4964,0,U,55802,999,15837,-.23653641E-3,-.75E-6,0
ONEWEB-0639,2023-029H,2026-06-09T16:15:52.249248,13.19725444,.00009666,87.9162,306.4725,116.7744,243.3488,0,U,55803,999,15791,.67409253E-4,.4E-6,0
ONEWEB-0640,2023-029J,2026-06-09T15:19:32.466144,13.14503104,.00015679,87.8948,291.2482,78.3214,281.8092,0,U,55804,999,15842,.79599711E-4,.42E-6,0
ONEWEB-0641,2023-029K,2026-06-09T16:09:01.986624,13.19724724,.00016949,87.9170,306.4620,100.1907,259.9417,0,U,55805,999,15792,.22808222E-3,.104E-5,0
ONEWEB-0642,2023-029L,2026-06-09T10:34:41.337408,13.19724773,.00012559,87.9165,306.5207,120.9363,239.1893,0,U,55806,999,15788,.245386E-3,.111E-5,0
ONEWEB-0643,2023-029M,2026-06-09T14:36:09.786240,13.14503048,.00016245,87.8951,291.2412,121.3711,238.7578,0,U,55807,999,15839,-.21816163E-3,-.68E-6,0
ONEWEB-0644,2023-029N,2026-06-09T15:55:23.056320,13.19724314,.00016058,87.9164,306.4778,106.1991,253.9319,0,U,55808,999,15791,.29582764E-3,.131E-5,0
ONEWEB-0645,2023-029P,2026-06-09T16:27:13.452768,13.19724054,.00013903,87.9163,306.4703,92.2068,267.9224,0,U,55809,999,15791,.11408618E-3,.59E-6,0
ONEWEB-0646,2023-029Q,2026-06-09T16:52:15.928896,13.19725295,.0001623,87.9162,306.4670,104.5013,255.6300,0,U,55810,999,15790,.42807717E-4,.3E-6,0
ONEWEB-0648,2023-029R,2026-06-09T15:40:04.244160,13.14505272,.00009258,87.8959,291.2053,103.4560,256.6673,0,U,55811,999,15840,.61912806E-3,.242E-5,0
ONEWEB-0649,2023-029S,2026-06-09T15:39:27.979488,13.19725152,.0001572,87.9163,306.4747,97.1949,262.9362,0,U,55812,999,15793,.10451141E-3,.55E-6,0
ONEWEB-0650,2023-029T,2026-06-09T15:32:37.530240,13.19724849,.00013655,87.9163,306.4783,109.2774,250.8507,0,U,55813,999,15790,.19520472E-3,.91E-6,0
ONEWEB-0652,2023-029U,2026-06-09T15:12:40.594752,13.14504732,.0002031,87.8955,291.2167,99.6258,260.5101,0,U,55814,999,15837,-.1792078E-3,-.54E-6,0
ONEWEB-0653,2023-029V,2026-06-09T14:49:50.759904,13.14503200,.00018902,87.8957,291.2175,96.9621,263.1724,0,U,55815,999,15840,-.42336487E-3,-.144E-5,0
ONEWEB-0654,2023-029W,2026-06-09T14:43:00.041088,13.14503990,.00021915,87.8958,291.2147,94.0744,266.0636,0,U,55816,999,15842,-.42083815E-3,-.143E-5,0
ONEWEB-0656,2023-029X,2026-06-09T16:54:28.101888,13.20772610,.00023351,87.9194,275.9207,95.2963,264.8437,0,U,55817,999,16016,-.17452704E-3,-.58E-6,0
ONEWEB-0657,2023-029Y,2026-06-09T15:25:49.781856,13.19725056,.00024457,87.9161,306.4778,106.9911,253.1490,0,U,55818,999,15791,.15429435E-3,.75E-6,0
ONEWEB-0658,2023-029Z,2026-06-09T15:19:00.158592,13.19724610,.00015319,87.9171,306.4538,107.3828,252.7473,0,U,55819,999,15792,.97807166E-4,.52E-6,0
ONEWEB-0660,2023-029AA,2026-06-09T14:11:02.090688,13.14502995,.00015835,87.8968,291.2116,93.4084,266.7227,0,U,55820,999,15840,.62046816E-3,.243E-5,0
ONEWEB-0661,2023-029AB,2026-06-09T09:32:26.852928,13.14502834,.00017253,87.8946,291.2965,91.2421,268.8907,0,U,55821,999,15836,-.17078484E-3,-.51E-6,0
ONEWEB-0662,2023-029AC,2026-06-09T15:51:30.827808,13.14502310,.00015758,87.8947,291.2501,94.0761,266.0548,0,U,55822,999,15844,.48570999E-3,.193E-5,0
ONEWEB-0663,2023-029AD,2026-06-09T17:43:46.660800,13.20869354,.00014953,87.9194,275.9859,101.4853,258.6449,0,U,55823,999,16016,.21415983E-3,.1E-5,0
ONEWEB-0664,2023-029AE,2026-06-09T14:45:57.957696,13.20770468,.000191,87.9178,275.9923,85.3316,274.8036,0,U,55824,999,16014,-.10498E-3,-.3E-6,0
ONEWEB-0665,2023-029AF,2026-06-09T14:56:42.650304,13.14503242,.00015583,87.8949,291.2323,96.6014,263.5293,0,U,55825,999,15841,-.43803625E-3,-.15E-5,0
ONEWEB-0666,2023-029AG,2026-06-09T16:25:21.959616,13.20770847,.00025615,87.9181,275.9683,110.0826,250.0584,0,U,55826,999,16016,-.10211047E-3,-.29E-6,0
