ONEWEB-0534             
1 55797U 23029B   26160.72973565  .00000069  00000+0  13793-3 0  9998
2 55797  87.9182 275.9565 0001835  99.2646 260.8695 13.20771461160164
ONEWEB-0556             
1 55798U 23029C   26160.73647808  .00000052  00000+0  95315-4 0  9991
2 55798  87.9179 275.9548 0001865  74.3355 285.7984 13.20773386160161
ONEWEB-0562             
1 55799U 23029D   26160.72299592  .00000026  00000+0  32504-4 0  9996
2 55799  87.9180 275.9384 0002486  82.7823 277.3593 13.20770687160169
ONEWEB-0563             
1 55800U 23029E   26160.71795883  .00000035  00000+0  53724-4 0  9999
2 55800  87.9178 275.9697 0001699 100.6302 259.5023 13.20772065160154
ONEWEB-0564             
1 55801U 23029F   26160.71122130 -.00000014  00000+0 -67169-4 0  9996
2 55801  87.9179 275.9444 0002212  92.0804 268.0583 13.20771006160160
ONEWEB-0638             
1 55802U 23029G   26160.40070322 -.00000075  00000+0 -23654-3 0  9995
2 55802  87.8948 291.3047 0001934  83.6385 276.4964 13.14502669158371
ONEWEB-0639             
1 55803U 23029H   26160.67768807  .00000040  00000+0  67409-4 0  9994
2 55803  87.9162 306.4725 0000966 116.7744 243.3488 13.19725444157919
ONEWEB-0640             
1 55804U 23029J   26160.63857021  .00000042  00000+0  79600-4 0  9996
2 55804  87.8948 291.2482 0001567  78.3214 281.8092 13.14503104158422
ONEWEB-0641             
1 55805U 23029K   26160.67293966  .00000104  00000+0  22808-3 0  9999
2 55805  87.9170 306.4620 0001694 100.1907 259.9417 13.19724724157927
ONEWEB-0642             
1 55806U 23029L   26160.44075622  .00000111  00000+0  24539-3 0  9993
2 55806  87.9165 306.5207 0001255 120.9363 239.1893 13.19724773157880
ONEWEB-0643             
1 55807U 23029M   26160.60844660 -.00000068  00000+0 -21816-3 0  9996
2 55807  87.8951 291.2412 0001624 121.3711 238.7578 13.14503048158390
ONEWEB-0644             
1 55808U 23029N   26160.66346130  .00000131  00000+0  29583-3 0  9990
2 55808  87.9164 306.4778 0001605 106.1991 253.9319 13.19724314157917
ONEWEB-0645             
1 55809U 23029P   26160.68557237  .00000059  00000+0  11409-3 0  9992
2 55809  87.9163 306.4703 0001390  92.2068 267.9224 13.19724054157917
ONEWEB-0646             
1 55810U 23029Q   26160.70296214  .00000030  00000+0  42808-4 0  9999
2 55810  87.9162 306.4670 0001623 104.5013 255.6300 13.19725295157903
ONEWEB-0648             
1 55811U 23029R   26160.65282690  .00000242  00000+0  61913-3 0  9999
2 55811  87.8959 291.2053 0000925 103.4560 256.6673 13.14505272158408
ONEWEB-0649             
1 55812U 23029S   26160.65240717  .00000055  00000+0  10451-3 0  9997
2 55812  87.9163 306.4747 0001572  97.1949 262.9362 13.19725152157933
ONEWEB-0650             
1 55813U 23029T   26160.64765660  .00000091  00000+0  19520-3 0  9992
2 55813  87.9163 306.4783 0001365 109.2774 250.8507 13.19724849157901
ONEWEB-0652             
1 55814U 23029U   26160.63380318 -.00000054  00000+0 -17921-3 0  9999
2 55814  87.8955 291.2167 0002031  99.6258 260.5101 13.14504732158379
ONEWEB-0653             
1 55815U 23029V   26160.61794861 -.00000144  00000+0 -42336-3 0  9998
2 55815  87.8957 291.2175 0001890  96.9621 263.1724 13.14503200158400
ONEWEB-0654             
1 55816U 23029W   26160.61319492 -.00000143  00000+0 -42084-3 0  9991
2 55816  87.8958 291.2147 0002191  94.0744 266.0636 13.14503990158423
ONEWEB-0656             
1 55817U 23029X   26160.70449192 -.00000058  00000+0 -17453-3 0  9990
2 55817  87.9194 275.9207 0002335  95.2963 264.8437 13.20772610160162
ONEWEB-0657             
1 55818U 23029Y   26160.64293729  .00000075  00000+0  15429-3 0  9995
2 55818  87.9161 306.4778 0002445 106.9911 253.1490 13.19725056157914
ONEWEB-0658             
1 55819U 23029Z   26160.63819628  .00000052  00000+0  97807-4 0  9993
2 55819  87.9171 306.4538 0001531 107.3828 252.7473 13.19724610157929
ONEWEB-0660             
1 55820U 23029AA  26160.59099642  .00000243  00000+0  62047-3 0  9995
2 55820  87.8968 291.2116 0001583  93.4084 266.7227 13.14502995158404
ONEWEB-0661             
1 55821U 23029AB  26160.39753302 -.00000051  00000+0 -17078-3 0  9997
2 55821  87.8946 291.2965 0001725  91.2421 268.8907 13.14502834158367
ONEWEB-0662             
1 55822U 23029AC  26160.66077347  .00000193  00000+0  48571-3 0  9993
2 55822  87.8947 291.2501 0001575  94.0761 266.0548 13.14502310158445
ONEWEB-0663             
1 55823U 23029AD  26160.73873450  .00000100  00000+0  21416-3 0  9998
2 55823  87.9194 275.9859 0001495 101.4853 258.6449 13.20869354160162
ONEWEB-0664             
1 55824U 23029AE  26160.61525414 -.00000030  00000+0 -10498-3 0  9992
2 55824  87.9178 275.9923 0001910  85.3316 274.8036 13.20770468160140
ONEWEB-0665             
1 55825U 23029AF  26160.62271586 -.00000150  00000+0 -43804-3 0  9992
2 55825  87.8949 291.2323 0001558  96.6014 263.5293 13.14503242158413
ONEWEB-0666             
1 55826U 23029AG  26160.68428194 -.00000029  00000+0 -10211-3 0  9999
2 55826  87.9181 275.9683 0002561 110.0826 250.0584 13.20770847160161
